GAOFEN-1 04             
1 43262U 18031D   26115.93333793  .00000583  00000+0  91258-4 0  9999
2 43262  98.0560 178.6443 0000690  95.3417 264.7871 14.76463862434973
SENTINEL-3B             
1 43437U 18039A   26115.94294781  .00000099  00000+0  58914-4 0  9999
2 43437  98.6271 184.2177 0001655  93.2680 266.8690 14.26733515416679
GAOFEN-5 01             
1 43461U 18043A   26115.86012194  .00000384  00000+0  89179-4 0  9992
2 43461  98.4535  86.3608 0000817 200.0629 160.0539 14.60567555424053
GAOFEN-6                
1 43484U 18048A   26115.96014483  .00000657  00000+0  10116-3 0  9993
2 43484  97.7790 180.5490 0011844 351.7131   8.3882 14.76568052425688
GAOFEN-11 01            
1 43585U 18063A   26115.96793211  .00012853  00000+0  20201-3 0  9992
2 43585  97.1329 183.0438 0004871 147.6538 212.5016 15.53747009432231
ICESAT-2                
1 43613U 18070A   26115.90272642  .00003413  00000+0  12375-3 0  9991
2 43613  92.0020 276.8757 0002271  58.1165 302.0305 15.28309556424470
HYSIS                   
1 43719U 18096A   26115.90236294  .00000882  00000+0  12737-3 0  9998
2 43719  97.9863 183.0522 0000843  76.4254 283.7050 14.78666232399698
KAZSTSAT                
1 43783U 18099AB  26115.65790645  .00000795  00000+0  68816-4 0  9992
2 43783  97.4371 149.9610 0003913 197.2393 162.8698 14.99773520403439
SAUDISAT 5A             
1 43831U 18102A   26115.96355063  .00006248  00000+0  23469-3 0  9999
2 43831  97.3108 178.5614 0008528 327.3054  32.7656 15.27504607407702
SAUDISAT 5B             
1 43833U 18102C   26115.92617362  .00006086  00000+0  22668-3 0  9990
2 43833  97.3209 181.5000 0009298 329.5485  30.5214 15.27789149407810
GAOFEN-10R              
1 44622U 19066A   26115.93051221  .00001240  00000+0  15959-3 0  9996
2 44622  98.0463  69.1453 0004622 320.0074  40.0798 14.82940046354635
CARTOSAT-3              
1 44804U 19081A   26115.92744501  .00002082  00000+0  10181-3 0  9991
2 44804  97.4339 178.6225 0011292 340.3735  19.7063 15.19277296355534
GAOFEN-12 01            
1 44819U 19082A   26115.96864564  .00000372  00000+0  55313-4 0  9991
2 44819  97.8126 123.7255 0001421 128.2147 231.9193 14.80414391346364
CSG-1                   
1 44873U 19092A   26115.93322802  .00000441  00000+0  61900-4 0  9999
2 44873  97.8887 300.2915 0001300  93.6672 266.4690 14.82153874343738
NEMO-HD                 
1 46277U 20061F   26115.95984851  .00011670  00000+0  26200-3 0  9996
2 46277  97.1961 178.4710 0001427 132.6196 227.5173 15.43524426313922
SENTINEL-6A             
1 46984U 20086A   26115.77462250 -.00000059  00000+0  67827-5 0  9994
2 46984  66.0412 243.9120 0007786 270.3074  89.7049 12.80930889253616
GAOFEN-12 02            
1 48079U 21026A   26115.97417331  .00000393  00000+0  58579-4 0  9991
2 48079  97.9927 114.3715 0005972  54.3480 305.8287 14.80252727274039
