[{"OBJECT_NAME":"GAOFEN-1 04","OBJECT_ID":"2018-031D","EPOCH":"2026-04-25T22:24:00.397152","MEAN_MOTION":14.76463862,"ECCENTRICITY":6.905e-5,"INCLINATION":98.056,"RA_OF_ASC_NODE":178.6443,"ARG_OF_PERICENTER":95.3417,"MEAN_ANOMALY":264.7871,"EPHEMERIS_TYPE":0,"CLASSIFICATION_TYPE":"U","NORAD_CAT_ID":43262,"ELEMENT_SET_NO":999,"REV_AT_EPOCH":43497,"BSTAR":9.125762e-5,"MEAN_MOTION_DOT":5.83e-6,"MEAN_MOTION_DDOT":0},{"OBJECT_NAME":"SENTINEL-3B","OBJECT_ID":"2018-039A","EPOCH":"2026-04-25T22:37:50.690784","MEAN_MOTION":14.26733515,"ECCENTRICITY":0.00016553,"INCLINATION":98.6271,"RA_OF_ASC_NODE":184.2177,"ARG_OF_PERICENTER":93.268,"MEAN_ANOMALY":266.869,"EPHEMERIS_TYPE":0,"CLASSIFICATION_TYPE":"U","NORAD_CAT_ID":43437,"ELEMENT_SET_NO":999,"REV_AT_EPOCH":41667,"BSTAR":5.8914135e-5,"MEAN_MOTION_DOT":9.9e-7,"MEAN_MOTION_DDOT":0},{"OBJECT_NAME":"GAOFEN-5 01","OBJECT_ID":"2018-043A","EPOCH":"2026-04-25T20:38:34.535616","MEAN_MOTION":14.60567555,"ECCENTRICITY":8.178e-5,"INCLINATION":98.4535,"RA_OF_ASC_NODE":86.3608,"ARG_OF_PERICENTER":200.0629,"MEAN_ANOMALY":160.0539,"EPHEMERIS_TYPE":0,"CLASSIFICATION_TYPE":"U","NORAD_CAT_ID":43461,"ELEMENT_SET_NO":999,"REV_AT_EPOCH":42405,"BSTAR":8.9178983e-5,"MEAN_MOTION_DOT":3.84e-6,"MEAN_MOTION_DDOT":0},{"OBJECT_NAME":"GAOFEN-6","OBJECT_ID":"2018-048A","EPOCH":"2026-04-25T23:02:36.513312","MEAN_MOTION":14.76568052,"ECCENTRICITY":0.00118444,"INCLINATION":97.779,"RA_OF_ASC_NODE":180.549,"ARG_OF_PERICENTER":351.7131,"MEAN_ANOMALY":8.3882,"EPHEMERIS_TYPE":0,"CLASSIFICATION_TYPE":"U","NORAD_CAT_ID":43484,"ELEMENT_SET_NO":999,"REV_AT_EPOCH":42568,"BSTAR":0.00010116254,"MEAN_MOTION_DOT":6.57e-6,"MEAN_MOTION_DDOT":0},{"OBJECT_NAME":"GAOFEN-11 01","OBJECT_ID":"2018-063A","EPOCH":"2026-04-25T23:13:49.334304","MEAN_MOTION":15.53747009,"ECCENTRICITY":0.00048716,"INCLINATION":97.1329,"RA_OF_ASC_NODE":183.0438,"ARG_OF_PERICENTER":147.6538,"MEAN_ANOMALY":212.5016,"EPHEMERIS_TYPE":0,"CLASSIFICATION_TYPE":"U","NORAD_CAT_ID":43585,"ELEMENT_SET_NO":999,"REV_AT_EPOCH":43223,"BSTAR":0.00020200989,"MEAN_MOTION_DOT":0.00012853,"MEAN_MOTION_DDOT":0},{"OBJECT_NAME":"ICESAT-2","OBJECT_ID":"2018-070A","EPOCH":"2026-04-25T21:39:55.562688","MEAN_MOTION":15.28309556,"ECCENTRICITY":0.0002271,"INCLINATION":92.002,"RA_OF_ASC_NODE":276.8757,"ARG_OF_PERICENTER":58.1165,"MEAN_ANOMALY":302.0305,"EPHEMERIS_TYPE":0,"CLASSIFICATION_TYPE":"U","NORAD_CAT_ID":43613,"ELEMENT_SET_NO":999,"REV_AT_EPOCH":42447,"BSTAR":0.00012374933,"MEAN_MOTION_DOT":3.413e-5,"MEAN_MOTION_DDOT":0},{"OBJECT_NAME":"HYSIS","OBJECT_ID":"2018-096A","EPOCH":"2026-04-25T21:39:24.158016","MEAN_MOTION":14.78666232,"ECCENTRICITY":8.433e-5,"INCLINATION":97.9863,"RA_OF_ASC_NODE":183.0522,"ARG_OF_PERICENTER":76.4254,"MEAN_ANOMALY":283.705,"EPHEMERIS_TYPE":0,"CLASSIFICATION_TYPE":"U","NORAD_CAT_ID":43719,"ELEMENT_SET_NO":999,"REV_AT_EPOCH":39969,"BSTAR":0.00012737425,"MEAN_MOTION_DOT":8.82e-6,"MEAN_MOTION_DDOT":0},{"OBJECT_NAME":"KAZSTSAT","OBJECT_ID":"2018-099AB","EPOCH":"2026-04-25T15:47:23.117280","MEAN_MOTION":14.9977352,"ECCENTRICITY":0.0003913,"INCLINATION":97.4371,"RA_OF_ASC_NODE":149.961,"ARG_OF_PERICENTER":197.2393,"MEAN_ANOMALY":162.8698,"EPHEMERIS_TYPE":0,"CLASSIFICATION_TYPE":"U","NORAD_CAT_ID":43783,"ELEMENT_SET_NO":999,"REV_AT_EPOCH":40343,"BSTAR":6.8816199e-5,"MEAN_MOTION_DOT":7.95e-6,"MEAN_MOTION_DDOT":0},{"OBJECT_NAME":"SAUDISAT 5A","OBJECT_ID":"2018-102A","EPOCH":"2026-04-25T23:07:30.774432","MEAN_MOTION":15.27504607,"ECCENTRICITY":0.00085288,"INCLINATION":97.3108,"RA_OF_ASC_NODE":178.5614,"ARG_OF_PERICENTER":327.3054,"MEAN_ANOMALY":32.7656,"EPHEMERIS_TYPE":0,"CLASSIFICATION_TYPE":"U","NORAD_CAT_ID":43831,"ELEMENT_SET_NO":999,"REV_AT_EPOCH":40770,"BSTAR":0.00023469454,"MEAN_MOTION_DOT":6.248e-5,"MEAN_MOTION_DDOT":0},{"OBJECT_NAME":"SAUDISAT 5B","OBJECT_ID":"2018-102C","EPOCH":"2026-04-25T22:13:41.400768","MEAN_MOTION":15.27789149,"ECCENTRICITY":0.00092983,"INCLINATION":97.3209,"RA_OF_ASC_NODE":181.5,"ARG_OF_PERICENTER":329.5485,"MEAN_ANOMALY":30.5214,"EPHEMERIS_TYPE":0,"CLASSIFICATION_TYPE":"U","NORAD_CAT_ID":43833,"ELEMENT_SET_NO":999,"REV_AT_EPOCH":40781,"BSTAR":0.00022668372,"MEAN_MOTION_DOT":6.086e-5,"MEAN_MOTION_DDOT":0},{"OBJECT_NAME":"GAOFEN-10R","OBJECT_ID":"2019-066A","EPOCH":"2026-04-25T22:19:56.254944","MEAN_MOTION":14.82940046,"ECCENTRICITY":0.00046227,"INCLINATION":98.0463,"RA_OF_ASC_NODE":69.1453,"ARG_OF_PERICENTER":320.0074,"MEAN_ANOMALY":40.0798,"EPHEMERIS_TYPE":0,"CLASSIFICATION_TYPE":"U","NORAD_CAT_ID":44622,"ELEMENT_SET_NO":999,"REV_AT_EPOCH":35463,"BSTAR":0.00015959009,"MEAN_MOTION_DOT":1.24e-5,"MEAN_MOTION_DDOT":0},{"OBJECT_NAME":"CARTOSAT-3","OBJECT_ID":"2019-081A","EPOCH":"2026-04-25T22:15:31.248864","MEAN_MOTION":15.19277296,"ECCENTRICITY":0.0011292,"INCLINATION":97.4339,"RA_OF_ASC_NODE":178.6225,"ARG_OF_PERICENTER":340.3735,"MEAN_ANOMALY":19.7063,"EPHEMERIS_TYPE":0,"CLASSIFICATION_TYPE":"U","NORAD_CAT_ID":44804,"ELEMENT_SET_NO":999,"REV_AT_EPOCH":35553,"BSTAR":0.00010181079,"MEAN_MOTION_DOT":2.082e-5,"MEAN_MOTION_DDOT":0},{"OBJECT_NAME":"GAOFEN-12 01","OBJECT_ID":"2019-082A","EPOCH":"2026-04-25T23:14:50.983296","MEAN_MOTION":14.80414391,"ECCENTRICITY":0.00014211,"INCLINATION":97.8126,"RA_OF_ASC_NODE":123.7255,"ARG_OF_PERICENTER":128.2147,"MEAN_ANOMALY":231.9193,"EPHEMERIS_TYPE":0,"CLASSIFICATION_TYPE":"U","NORAD_CAT_ID":44819,"ELEMENT_SET_NO":999,"REV_AT_EPOCH":34636,"BSTAR":5.531274e-5,"MEAN_MOTION_DOT":3.72e-6,"MEAN_MOTION_DDOT":0},{"OBJECT_NAME":"CSG-1","OBJECT_ID":"2019-092A","EPOCH":"2026-04-25T22:23:50.900928","MEAN_MOTION":14.82153874,"ECCENTRICITY":0.00013007,"INCLINATION":97.8887,"RA_OF_ASC_NODE":300.2915,"ARG_OF_PERICENTER":93.6672,"MEAN_ANOMALY":266.469,"EPHEMERIS_TYPE":0,"CLASSIFICATION_TYPE":"U","NORAD_CAT_ID":44873,"ELEMENT_SET_NO":999,"REV_AT_EPOCH":34373,"BSTAR":6.1899507e-5,"MEAN_MOTION_DOT":4.41e-6,"MEAN_MOTION_DDOT":0},{"OBJECT_NAME":"NEMO-HD","OBJECT_ID":"2020-061F","EPOCH":"2026-04-25T23:02:10.911264","MEAN_MOTION":15.43524426,"ECCENTRICITY":0.00014272,"INCLINATION":97.1961,"RA_OF_ASC_NODE":178.471,"ARG_OF_PERICENTER":132.6196,"MEAN_ANOMALY":227.5173,"EPHEMERIS_TYPE":0,"CLASSIFICATION_TYPE":"U","NORAD_CAT_ID":46277,"ELEMENT_SET_NO":999,"REV_AT_EPOCH":31392,"BSTAR":0.00026200192,"MEAN_MOTION_DOT":0.0001167,"MEAN_MOTION_DDOT":0},{"OBJECT_NAME":"SENTINEL-6A","OBJECT_ID":"2020-086A","EPOCH":"2026-04-25T18:35:27.384000","MEAN_MOTION":12.80930889,"ECCENTRICITY":0.00077863,"INCLINATION":66.0412,"RA_OF_ASC_NODE":243.912,"ARG_OF_PERICENTER":270.3074,"MEAN_ANOMALY":89.7049,"EPHEMERIS_TYPE":0,"CLASSIFICATION_TYPE":"U","NORAD_CAT_ID":46984,"ELEMENT_SET_NO":999,"REV_AT_EPOCH":25361,"BSTAR":6.782699e-6,"MEAN_MOTION_DOT":-5.9e-7,"MEAN_MOTION_DDOT":0},{"OBJECT_NAME":"GAOFEN-12 02","OBJECT_ID":"2021-026A","EPOCH":"2026-04-25T23:22:48.573984","MEAN_MOTION":14.80252727,"ECCENTRICITY":0.00059725,"INCLINATION":97.9927,"RA_OF_ASC_NODE":114.3715,"ARG_OF_PERICENTER":54.348,"MEAN_ANOMALY":305.8287,"EPHEMERIS_TYPE":0,"CLASSIFICATION_TYPE":"U","NORAD_CAT_ID":48079,"ELEMENT_SET_NO":999,"REV_AT_EPOCH":27403,"BSTAR":5.8578952e-5,"MEAN_MOTION_DOT":3.93e-6,"MEAN_MOTION_DDOT":0}]
